STARLINK-5879           
1 57153U 23090BE  25294.24427780 -.00000061  00000+0  10577-4 0  9992
2 57153  43.0013 286.6207 0001291 269.3147  90.7547 15.02525477129237
STARLINK-6106           
1 57154U 23090BF  25294.27830087  .00000137  00000+0  25229-4 0  9997
2 57154  43.0043 299.0291 0001066 264.0432  96.0289 15.02540187129597
STARLINK-6108           
1 57155U 23090BG  25294.33034847  .00000634  00000+0  62019-4 0  9995
2 57155  43.0061 298.5629 0001197 263.9526  96.1180 15.02536611129604
STARLINK-6137           
1 57156U 23090BH  25294.06777266  .00000431  00000+0  46985-4 0  9994
2 57156  43.0072 300.0320 0001659 266.2797  93.7855 15.02528130129567
STARLINK-5525           
1 57218U 23094A   25294.40746776  .00000473  00000+0  50087-4 0  9991
2 57218  43.0040  67.5517 0001287 270.8449  89.2245 15.02532270126162
STARLINK-5520           
1 57219U 23094B   25294.80300631  .00000414  00000+0  45724-4 0  9999
2 57219  43.0053  65.3597 0001368 267.5826  92.4860 15.02531175126222
STARLINK-5880           
1 57220U 23094C   25294.38860162  .00001145  00000+0  99793-4 0  9991
2 57220  43.0038  67.4077 0001447 266.0521  94.0156 15.02533488126165
STARLINK-5875           
1 57221U 23094D   25294.40191512 -.00000743  00000+0 -39931-4 0  9994
2 57221  43.0037  67.5100 0001287 269.0043  91.0652 15.02543729126164
STARLINK-5870           
1 57222U 23094E   25294.39525796  .00000880  00000+0  80224-4 0  9999
2 57222  43.0049  67.4609 0001466 270.5915  89.4759 15.02536736126793
STARLINK-5519           
1 57223U 23094F   25294.39857493 -.00011454  00000+0 -83308-3 0  9998
2 57223  43.0053  67.4821 0001325 286.2986  73.7710 15.02588358126162
STARLINK-5983           
1 57224U 23094G   25294.39193002 -.00000480  00000+0 -20491-4 0  9990
2 57224  43.0033  67.4340 0001264 267.0805  92.9893 15.02532157126167
STARLINK-6294           
1 57225U 23094H   25294.06841940 -.00000587  00000+0 -28418-4 0  9991
2 57225  43.0040  69.3004 0001206 271.8934  88.1770 15.02536185126117
STARLINK-6350           
1 57226U 23094J   25294.38083019  .00000395  00000+0  44288-4 0  9990
2 57226  43.0038  67.3480 0001359 269.4815  90.5872 15.02535695126161
STARLINK-5996           
1 57227U 23094K   25294.38526892  .00000401  00000+0  44755-4 0  9999
2 57227  43.0036  67.3826 0001432 267.8936  92.1742 15.02537148126161
STARLINK-6230           
1 57228U 23094L   25294.44397590  .00001542  00000+0  12919-3 0  9991
2 57228  43.0037  66.9611 0001281 279.3737  80.6961 15.02533346126171
STARLINK-6233           
1 57229U 23094M   25294.38415856 -.00000139  00000+0  47500-5 0  9999
2 57229  43.0040  67.3739 0001287 267.3245  92.7450 15.02537765126164
