[{"OBJECT_NAME":"STARLINK-5879","OBJECT_ID":"2023-090BE","EPOCH":"2025-10-21T05:51:45.601920","MEAN_MOTION":15.02525477,"ECCENTRICITY":0.00012919,"INCLINATION":43.0013,"RA_OF_ASC_NODE":286.6207,"ARG_OF_PERICENTER":269.3147,"MEAN_ANOMALY":90.7547,"EPHEMERIS_TYPE":0,"CLASSIFICATION_TYPE":"U","NORAD_CAT_ID":57153,"ELEMENT_SET_NO":999,"REV_AT_EPOCH":12923,"BSTAR":1.0577111e-5,"MEAN_MOTION_DOT":-6.1e-7,"MEAN_MOTION_DDOT":0},{"OBJECT_NAME":"STARLINK-6106","OBJECT_ID":"2023-090BF","EPOCH":"2025-10-21T06:40:45.195168","MEAN_MOTION":15.02540187,"ECCENTRICITY":0.00010665,"INCLINATION":43.0043,"RA_OF_ASC_NODE":299.0291,"ARG_OF_PERICENTER":264.0432,"MEAN_ANOMALY":96.0289,"EPHEMERIS_TYPE":0,"CLASSIFICATION_TYPE":"U","NORAD_CAT_ID":57154,"ELEMENT_SET_NO":999,"REV_AT_EPOCH":12959,"BSTAR":2.5228963e-5,"MEAN_MOTION_DOT":1.37e-6,"MEAN_MOTION_DDOT":0},{"OBJECT_NAME":"STARLINK-6108","OBJECT_ID":"2023-090BG","EPOCH":"2025-10-21T07:55:42.107808","MEAN_MOTION":15.02536611,"ECCENTRICITY":0.0001197,"INCLINATION":43.0061,"RA_OF_ASC_NODE":298.5629,"ARG_OF_PERICENTER":263.9526,"MEAN_ANOMALY":96.118,"EPHEMERIS_TYPE":0,"CLASSIFICATION_TYPE":"U","NORAD_CAT_ID":57155,"ELEMENT_SET_NO":999,"REV_AT_EPOCH":12960,"BSTAR":6.2018841e-5,"MEAN_MOTION_DOT":6.34e-6,"MEAN_MOTION_DDOT":0},{"OBJECT_NAME":"STARLINK-6137","OBJECT_ID":"2023-090BH","EPOCH":"2025-10-21T01:37:35.557824","MEAN_MOTION":15.0252813,"ECCENTRICITY":0.00016591,"INCLINATION":43.0072,"RA_OF_ASC_NODE":300.032,"ARG_OF_PERICENTER":266.2797,"MEAN_ANOMALY":93.7855,"EPHEMERIS_TYPE":0,"CLASSIFICATION_TYPE":"U","NORAD_CAT_ID":57156,"ELEMENT_SET_NO":999,"REV_AT_EPOCH":12956,"BSTAR":4.6985326e-5,"MEAN_MOTION_DOT":4.31e-6,"MEAN_MOTION_DDOT":0},{"OBJECT_NAME":"STARLINK-5525","OBJECT_ID":"2023-094A","EPOCH":"2025-10-21T09:46:45.214464","MEAN_MOTION":15.0253227,"ECCENTRICITY":0.00012871,"INCLINATION":43.004,"RA_OF_ASC_NODE":67.5517,"ARG_OF_PERICENTER":270.8449,"MEAN_ANOMALY":89.2245,"EPHEMERIS_TYPE":0,"CLASSIFICATION_TYPE":"U","NORAD_CAT_ID":57218,"ELEMENT_SET_NO":999,"REV_AT_EPOCH":12616,"BSTAR":5.0086602e-5,"MEAN_MOTION_DOT":4.73e-6,"MEAN_MOTION_DDOT":0},{"OBJECT_NAME":"STARLINK-5520","OBJECT_ID":"2023-094B","EPOCH":"2025-10-21T19:16:19.745184","MEAN_MOTION":15.02531175,"ECCENTRICITY":0.0001368,"INCLINATION":43.0053,"RA_OF_ASC_NODE":65.3597,"ARG_OF_PERICENTER":267.5826,"MEAN_ANOMALY":92.486,"EPHEMERIS_TYPE":0,"CLASSIFICATION_TYPE":"U","NORAD_CAT_ID":57219,"ELEMENT_SET_NO":999,"REV_AT_EPOCH":12622,"BSTAR":4.5724e-5,"MEAN_MOTION_DOT":4.14e-6,"MEAN_MOTION_DDOT":0},{"OBJECT_NAME":"STARLINK-5880","OBJECT_ID":"2023-094C","EPOCH":"2025-10-21T09:19:35.179968","MEAN_MOTION":15.02533488,"ECCENTRICITY":0.00014471,"INCLINATION":43.0038,"RA_OF_ASC_NODE":67.4077,"ARG_OF_PERICENTER":266.0521,"MEAN_ANOMALY":94.0156,"EPHEMERIS_TYPE":0,"CLASSIFICATION_TYPE":"U","NORAD_CAT_ID":57220,"ELEMENT_SET_NO":999,"REV_AT_EPOCH":12616,"BSTAR":9.9792962e-5,"MEAN_MOTION_DOT":1.145e-5,"MEAN_MOTION_DDOT":0},{"OBJECT_NAME":"STARLINK-5875","OBJECT_ID":"2023-094D","EPOCH":"2025-10-21T09:38:45.466368","MEAN_MOTION":15.02543729,"ECCENTRICITY":0.00012873,"INCLINATION":43.0037,"RA_OF_ASC_NODE":67.51,"ARG_OF_PERICENTER":269.0043,"MEAN_ANOMALY":91.0652,"EPHEMERIS_TYPE":0,"CLASSIFICATION_TYPE":"U","NORAD_CAT_ID":57221,"ELEMENT_SET_NO":999,"REV_AT_EPOCH":12616,"BSTAR":-3.9930741e-5,"MEAN_MOTION_DOT":-7.43e-6,"MEAN_MOTION_DDOT":0},{"OBJECT_NAME":"STARLINK-5870","OBJECT_ID":"2023-094E","EPOCH":"2025-10-21T09:29:10.287744","MEAN_MOTION":15.02536736,"ECCENTRICITY":0.00014667,"INCLINATION":43.0049,"RA_OF_ASC_NODE":67.4609,"ARG_OF_PERICENTER":270.5915,"MEAN_ANOMALY":89.4759,"EPHEMERIS_TYPE":0,"CLASSIFICATION_TYPE":"U","NORAD_CAT_ID":57222,"ELEMENT_SET_NO":999,"REV_AT_EPOCH":12679,"BSTAR":8.0223784e-5,"MEAN_MOTION_DOT":8.8e-6,"MEAN_MOTION_DDOT":0},{"OBJECT_NAME":"STARLINK-5519","OBJECT_ID":"2023-094F","EPOCH":"2025-10-21T09:33:56.873952","MEAN_MOTION":15.02588358,"ECCENTRICITY":0.00013259,"INCLINATION":43.0053,"RA_OF_ASC_NODE":67.4821,"ARG_OF_PERICENTER":286.2986,"MEAN_ANOMALY":73.771,"EPHEMERIS_TYPE":0,"CLASSIFICATION_TYPE":"U","NORAD_CAT_ID":57223,"ELEMENT_SET_NO":999,"REV_AT_EPOCH":12616,"BSTAR":-0.00083307658,"MEAN_MOTION_DOT":-0.00011454,"MEAN_MOTION_DDOT":0},{"OBJECT_NAME":"STARLINK-5983","OBJECT_ID":"2023-094G","EPOCH":"2025-10-21T09:24:22.753728","MEAN_MOTION":15.02532157,"ECCENTRICITY":0.00012641,"INCLINATION":43.0033,"RA_OF_ASC_NODE":67.434,"ARG_OF_PERICENTER":267.0805,"MEAN_ANOMALY":92.9893,"EPHEMERIS_TYPE":0,"CLASSIFICATION_TYPE":"U","NORAD_CAT_ID":57224,"ELEMENT_SET_NO":999,"REV_AT_EPOCH":12616,"BSTAR":-2.0490786e-5,"MEAN_MOTION_DOT":-4.8e-6,"MEAN_MOTION_DDOT":0},{"OBJECT_NAME":"STARLINK-6294","OBJECT_ID":"2023-094H","EPOCH":"2025-10-21T01:38:31.436160","MEAN_MOTION":15.02536185,"ECCENTRICITY":0.00012062,"INCLINATION":43.004,"RA_OF_ASC_NODE":69.3004,"ARG_OF_PERICENTER":271.8934,"MEAN_ANOMALY":88.177,"EPHEMERIS_TYPE":0,"CLASSIFICATION_TYPE":"U","NORAD_CAT_ID":57225,"ELEMENT_SET_NO":999,"REV_AT_EPOCH":12611,"BSTAR":-2.8418214e-5,"MEAN_MOTION_DOT":-5.87e-6,"MEAN_MOTION_DDOT":0},{"OBJECT_NAME":"STARLINK-6350","OBJECT_ID":"2023-094J","EPOCH":"2025-10-21T09:08:23.728416","MEAN_MOTION":15.02535695,"ECCENTRICITY":0.00013594,"INCLINATION":43.0038,"RA_OF_ASC_NODE":67.348,"ARG_OF_PERICENTER":269.4815,"MEAN_ANOMALY":90.5872,"EPHEMERIS_TYPE":0,"CLASSIFICATION_TYPE":"U","NORAD_CAT_ID":57226,"ELEMENT_SET_NO":999,"REV_AT_EPOCH":12616,"BSTAR":4.4288291e-5,"MEAN_MOTION_DOT":3.95e-6,"MEAN_MOTION_DDOT":0},{"OBJECT_NAME":"STARLINK-5996","OBJECT_ID":"2023-094K","EPOCH":"2025-10-21T09:14:47.234688","MEAN_MOTION":15.02537148,"ECCENTRICITY":0.00014327,"INCLINATION":43.0036,"RA_OF_ASC_NODE":67.3826,"ARG_OF_PERICENTER":267.8936,"MEAN_ANOMALY":92.1742,"EPHEMERIS_TYPE":0,"CLASSIFICATION_TYPE":"U","NORAD_CAT_ID":57227,"ELEMENT_SET_NO":999,"REV_AT_EPOCH":12616,"BSTAR":4.475533e-5,"MEAN_MOTION_DOT":4.01e-6,"MEAN_MOTION_DDOT":0},{"OBJECT_NAME":"STARLINK-6230","OBJECT_ID":"2023-094L","EPOCH":"2025-10-21T10:39:19.517760","MEAN_MOTION":15.02533346,"ECCENTRICITY":0.00012818,"INCLINATION":43.0037,"RA_OF_ASC_NODE":66.9611,"ARG_OF_PERICENTER":279.3737,"MEAN_ANOMALY":80.6961,"EPHEMERIS_TYPE":0,"CLASSIFICATION_TYPE":"U","NORAD_CAT_ID":57228,"ELEMENT_SET_NO":999,"REV_AT_EPOCH":12617,"BSTAR":0.00012919413,"MEAN_MOTION_DOT":1.542e-5,"MEAN_MOTION_DDOT":0},{"OBJECT_NAME":"STARLINK-6233","OBJECT_ID":"2023-094M","EPOCH":"2025-10-21T09:13:11.299584","MEAN_MOTION":15.02537765,"ECCENTRICITY":0.00012878,"INCLINATION":43.004,"RA_OF_ASC_NODE":67.3739,"ARG_OF_PERICENTER":267.3245,"MEAN_ANOMALY":92.745,"EPHEMERIS_TYPE":0,"CLASSIFICATION_TYPE":"U","NORAD_CAT_ID":57229,"ELEMENT_SET_NO":999,"REV_AT_EPOCH":12616,"BSTAR":4.749977e-6,"MEAN_MOTION_DOT":-1.39e-6,"MEAN_MOTION_DDOT":0}]
